ATLAS CENTAUR R/B       
1 06155U 72065B   25353.55281285  .00000869  00000+0  12252-3 0  9998
2 06155  35.0022  55.2876 0033343  55.5259 304.8584 14.77426270829406
SL-8 R/B                
1 08459U 75112B   25353.23026618  .00000260  00000+0  94171-4 0  9991
2 08459  74.0589 166.9193 0016661 277.6121  82.3141 14.38149375620307
SL-3 R/B                
1 10114U 77057B   25353.75981600  .00009090  00000+0  20746-3 0  9996
2 10114  97.5680 157.3619 0006919 203.8379 156.2548 15.43103930655997
SEASAT 1                
1 10967U 78064A   25353.66913861  .00000194  00000+0  92948-4 0  9995
2 10967 108.0127 317.5720 0001450 252.5707 107.5280 14.46068428494943
SL-14 R/B               
1 11267U 79011B   25353.76393036  .00000450  00000+0  42036-4 0  9997
2 11267  82.5232 172.3822 0015284 329.3654  30.6671 14.91777429516868
SL-8 R/B                
1 11574U 79089B   25353.84189493  .00000199  00000+0  68178-4 0  9997
2 11574  74.0683 238.8347 0014588  70.2437 290.0291 14.42288070424595
SL-14 R/B               
1 11672U 80005B   25353.79164618  .00000435  00000+0  41515-4 0  9991
2 11672  82.5142  23.0110 0017293  72.0717 288.2386 14.90799278464584
SL-8 R/B                
1 12139U 81003B   25353.44346701  .00011880  00000+0  31388-3 0  9998
2 12139  82.9309   4.0341 0278731  97.1946 266.1058 15.07222658302578
SL-3 R/B                
1 12465U 81046B   25353.64824608  .00008101  00000+0  20289-3 0  9996
2 12465  81.2323  25.6731 0018398 299.3587  60.5816 15.39740352426103
SL-3 R/B                
1 12904U 81103B   25353.83421556  .00004614  00000+0  21084-3 0  9993
2 12904  81.1594 307.0438 0012221 187.0211 173.0851 15.20309520961096
SL-3 R/B                
1 13068U 82013B   25353.81362440  .00003712  00000+0  16426-3 0  9992
2 13068  81.1752 254.3294 0024222  88.2046 272.1959 15.21143268392207
SL-3 R/B                
1 13154U 82039B   25353.86442378  .00001920  00000+0  11700-3 0  9999
2 13154  81.1713 307.9000 0029446 228.0691 131.8024 15.09562926369595
