CCSDS_OMM_VERS = 2.0
CREATION_DATE  = 
ORIGINATOR     = 

OBJECT_NAME    = ATLAS CENTAUR R/B
OBJECT_ID      = 1972-065B
CENTER_NAME    = EARTH
REF_FRAME      = TEME
TIME_SYSTEM    = UTC
MEAN_ELEMENT_THEORY = SGP/SGP4

EPOCH          = 2025-12-19T13:16:03.030240
MEAN_MOTION    = 14.77426270
ECCENTRICITY   = .0033343
INCLINATION    = 35.0022
RA_OF_ASC_NODE = 55.2876
ARG_OF_PERICENTER = 55.5259
MEAN_ANOMALY   = 304.8584

EPHEMERIS_TYPE = 0
CLASSIFICATION_TYPE = U
NORAD_CAT_ID   = 6155
ELEMENT_SET_NO = 999
REV_AT_EPOCH   = 82940
BSTAR          = .12252E-3
MEAN_MOTION_DOT = .869E-5
MEAN_MOTION_DDOT = 0

CCSDS_OMM_VERS = 2.0
CREATION_DATE  = 
ORIGINATOR     = 

OBJECT_NAME    = SL-8 R/B
OBJECT_ID      = 1975-112B
CENTER_NAME    = EARTH
REF_FRAME      = TEME
TIME_SYSTEM    = UTC
MEAN_ELEMENT_THEORY = SGP/SGP4

EPOCH          = 2025-12-19T05:31:34.997952
MEAN_MOTION    = 14.38149375
ECCENTRICITY   = .0016661
INCLINATION    = 74.0589
RA_OF_ASC_NODE = 166.9193
ARG_OF_PERICENTER = 277.6121
MEAN_ANOMALY   = 82.3141

EPHEMERIS_TYPE = 0
CLASSIFICATION_TYPE = U
NORAD_CAT_ID   = 8459
ELEMENT_SET_NO = 999
REV_AT_EPOCH   = 62030
BSTAR          = .94171E-4
MEAN_MOTION_DOT = .26E-5
MEAN_MOTION_DDOT = 0

CCSDS_OMM_VERS = 2.0
CREATION_DATE  = 
ORIGINATOR     = 

OBJECT_NAME    = SL-3 R/B
OBJECT_ID      = 1977-057B
CENTER_NAME    = EARTH
REF_FRAME      = TEME
TIME_SYSTEM    = UTC
MEAN_ELEMENT_THEORY = SGP/SGP4

EPOCH          = 2025-12-19T18:14:08.102400
MEAN_MOTION    = 15.43103930
ECCENTRICITY   = .0006919
INCLINATION    = 97.5680
RA_OF_ASC_NODE = 157.3619
ARG_OF_PERICENTER = 203.8379
MEAN_ANOMALY   = 156.2548

EPHEMERIS_TYPE = 0
CLASSIFICATION_TYPE = U
NORAD_CAT_ID   = 10114
ELEMENT_SET_NO = 999
REV_AT_EPOCH   = 65599
BSTAR          = .20746E-3
MEAN_MOTION_DOT = .909E-4
MEAN_MOTION_DDOT = 0

CCSDS_OMM_VERS = 2.0
CREATION_DATE  = 
ORIGINATOR     = 

OBJECT_NAME    = SEASAT 1
OBJECT_ID      = 1978-064A
CENTER_NAME    = EARTH
REF_FRAME      = TEME
TIME_SYSTEM    = UTC
MEAN_ELEMENT_THEORY = SGP/SGP4

EPOCH          = 2025-12-19T16:03:33.575904
MEAN_MOTION    = 14.46068428
ECCENTRICITY   = .000145
INCLINATION    = 108.0127
RA_OF_ASC_NODE = 317.5720
ARG_OF_PERICENTER = 252.5707
MEAN_ANOMALY   = 107.5280

EPHEMERIS_TYPE = 0
CLASSIFICATION_TYPE = U
NORAD_CAT_ID   = 10967
ELEMENT_SET_NO = 999
REV_AT_EPOCH   = 49494
BSTAR          = .92948E-4
MEAN_MOTION_DOT = .194E-5
MEAN_MOTION_DDOT = 0

CCSDS_OMM_VERS = 2.0
CREATION_DATE  = 
ORIGINATOR     = 

OBJECT_NAME    = SL-14 R/B
OBJECT_ID      = 1979-011B
CENTER_NAME    = EARTH
REF_FRAME      = TEME
TIME_SYSTEM    = UTC
MEAN_ELEMENT_THEORY = SGP/SGP4

EPOCH          = 2025-12-19T18:20:03.583104
MEAN_MOTION    = 14.91777429
ECCENTRICITY   = .0015284
INCLINATION    = 82.5232
RA_OF_ASC_NODE = 172.3822
ARG_OF_PERICENTER = 329.3654
MEAN_ANOMALY   = 30.6671

EPHEMERIS_TYPE = 0
CLASSIFICATION_TYPE = U
NORAD_CAT_ID   = 11267
ELEMENT_SET_NO = 999
REV_AT_EPOCH   = 51686
BSTAR          = .42036E-4
MEAN_MOTION_DOT = .45E-5
MEAN_MOTION_DDOT = 0

CCSDS_OMM_VERS = 2.0
CREATION_DATE  = 
ORIGINATOR     = 

OBJECT_NAME    = SL-8 R/B
OBJECT_ID      = 1979-089B
CENTER_NAME    = EARTH
REF_FRAME      = TEME
TIME_SYSTEM    = UTC
MEAN_ELEMENT_THEORY = SGP/SGP4

EPOCH          = 2025-12-19T20:12:19.721952
MEAN_MOTION    = 14.42288070
ECCENTRICITY   = .0014588
INCLINATION    = 74.0683
RA_OF_ASC_NODE = 238.8347
ARG_OF_PERICENTER = 70.2437
MEAN_ANOMALY   = 290.0291

EPHEMERIS_TYPE = 0
CLASSIFICATION_TYPE = U
NORAD_CAT_ID   = 11574
ELEMENT_SET_NO = 999
REV_AT_EPOCH   = 42459
BSTAR          = .68178E-4
MEAN_MOTION_DOT = .199E-5
MEAN_MOTION_DDOT = 0

CCSDS_OMM_VERS = 2.0
CREATION_DATE  = 
ORIGINATOR     = 

OBJECT_NAME    = SL-14 R/B
OBJECT_ID      = 1980-005B
CENTER_NAME    = EARTH
REF_FRAME      = TEME
TIME_SYSTEM    = UTC
MEAN_ELEMENT_THEORY = SGP/SGP4

EPOCH          = 2025-12-19T18:59:58.229952
MEAN_MOTION    = 14.90799278
ECCENTRICITY   = .0017293
INCLINATION    = 82.5142
RA_OF_ASC_NODE = 23.0110
ARG_OF_PERICENTER = 72.0717
MEAN_ANOMALY   = 288.2386

EPHEMERIS_TYPE = 0
CLASSIFICATION_TYPE = U
NORAD_CAT_ID   = 11672
ELEMENT_SET_NO = 999
REV_AT_EPOCH   = 46458
BSTAR          = .41515E-4
MEAN_MOTION_DOT = .435E-5
MEAN_MOTION_DDOT = 0

CCSDS_OMM_VERS = 2.0
CREATION_DATE  = 
ORIGINATOR     = 

OBJECT_NAME    = SL-8 R/B
OBJECT_ID      = 1981-003B
CENTER_NAME    = EARTH
REF_FRAME      = TEME
TIME_SYSTEM    = UTC
MEAN_ELEMENT_THEORY = SGP/SGP4

EPOCH          = 2025-12-19T10:38:35.549664
MEAN_MOTION    = 15.07222658
ECCENTRICITY   = .0278731
INCLINATION    = 82.9309
RA_OF_ASC_NODE = 4.0341
ARG_OF_PERICENTER = 97.1946
MEAN_ANOMALY   = 266.1058

EPHEMERIS_TYPE = 0
CLASSIFICATION_TYPE = U
NORAD_CAT_ID   = 12139
ELEMENT_SET_NO = 999
REV_AT_EPOCH   = 30257
BSTAR          = .31388E-3
MEAN_MOTION_DOT = .1188E-3
MEAN_MOTION_DDOT = 0

CCSDS_OMM_VERS = 2.0
CREATION_DATE  = 
ORIGINATOR     = 

OBJECT_NAME    = SL-3 R/B
OBJECT_ID      = 1981-046B
CENTER_NAME    = EARTH
REF_FRAME      = TEME
TIME_SYSTEM    = UTC
MEAN_ELEMENT_THEORY = SGP/SGP4

EPOCH          = 2025-12-19T15:33:28.461312
MEAN_MOTION    = 15.39740352
ECCENTRICITY   = .0018398
INCLINATION    = 81.2323
RA_OF_ASC_NODE = 25.6731
ARG_OF_PERICENTER = 299.3587
MEAN_ANOMALY   = 60.5816

EPHEMERIS_TYPE = 0
CLASSIFICATION_TYPE = U
NORAD_CAT_ID   = 12465
ELEMENT_SET_NO = 999
REV_AT_EPOCH   = 42610
BSTAR          = .20289E-3
MEAN_MOTION_DOT = .8101E-4
MEAN_MOTION_DDOT = 0

CCSDS_OMM_VERS = 2.0
CREATION_DATE  = 
ORIGINATOR     = 

OBJECT_NAME    = SL-3 R/B
OBJECT_ID      = 1981-103B
CENTER_NAME    = EARTH
REF_FRAME      = TEME
TIME_SYSTEM    = UTC
MEAN_ELEMENT_THEORY = SGP/SGP4

EPOCH          = 2025-12-19T20:01:16.224384
MEAN_MOTION    = 15.20309520
ECCENTRICITY   = .0012221
INCLINATION    = 81.1594
RA_OF_ASC_NODE = 307.0438
ARG_OF_PERICENTER = 187.0211
MEAN_ANOMALY   = 173.0851

EPHEMERIS_TYPE = 0
CLASSIFICATION_TYPE = U
NORAD_CAT_ID   = 12904
ELEMENT_SET_NO = 999
REV_AT_EPOCH   = 96109
BSTAR          = .21084E-3
MEAN_MOTION_DOT = .4614E-4
MEAN_MOTION_DDOT = 0

CCSDS_OMM_VERS = 2.0
CREATION_DATE  = 
ORIGINATOR     = 

OBJECT_NAME    = SL-3 R/B
OBJECT_ID      = 1982-013B
CENTER_NAME    = EARTH
REF_FRAME      = TEME
TIME_SYSTEM    = UTC
MEAN_ELEMENT_THEORY = SGP/SGP4

EPOCH          = 2025-12-19T19:31:37.148160
MEAN_MOTION    = 15.21143268
ECCENTRICITY   = .0024222
INCLINATION    = 81.1752
RA_OF_ASC_NODE = 254.3294
ARG_OF_PERICENTER = 88.2046
MEAN_ANOMALY   = 272.1959

EPHEMERIS_TYPE = 0
CLASSIFICATION_TYPE = U
NORAD_CAT_ID   = 13068
ELEMENT_SET_NO = 999
REV_AT_EPOCH   = 39220
BSTAR          = .16426E-3
MEAN_MOTION_DOT = .3712E-4
MEAN_MOTION_DDOT = 0

CCSDS_OMM_VERS = 2.0
CREATION_DATE  = 
ORIGINATOR     = 

OBJECT_NAME    = SL-3 R/B
OBJECT_ID      = 1982-039B
CENTER_NAME    = EARTH
REF_FRAME      = TEME
TIME_SYSTEM    = UTC
MEAN_ELEMENT_THEORY = SGP/SGP4

EPOCH          = 2025-12-19T20:44:46.214592
MEAN_MOTION    = 15.09562926
ECCENTRICITY   = .0029446
INCLINATION    = 81.1713
RA_OF_ASC_NODE = 307.9000
ARG_OF_PERICENTER = 228.0691
MEAN_ANOMALY   = 131.8024

EPHEMERIS_TYPE = 0
CLASSIFICATION_TYPE = U
NORAD_CAT_ID   = 13154
ELEMENT_SET_NO = 999
REV_AT_EPOCH   = 36959
BSTAR          = .117E-3
MEAN_MOTION_DOT = .192E-4
MEAN_MOTION_DDOT = 0

